STARLINK-30954          
1 58407U 23180F   26079.45460984  .00000785  00000+0  38058-4 0  9999
2 58407  42.9993 351.6327 0001290 282.3683  77.7024 15.27581172129270
STARLINK-30906          
1 58408U 23180G   26080.00087424  .00000488  00000+0  27886-4 0  9994
2 58408  43.0023 352.1014 0001438 258.1292 101.9398 15.26745181129205
STARLINK-30940          
1 58409U 23180H   26079.68821691 -.00000480  00000+0 -79048-5 0  9991
2 58409  42.9995 205.3481 0001275 273.5489  86.5216 15.27580341131012
STARLINK-30933          
1 58410U 23180J   26079.69963003  .00001764  00000+0  73600-4 0  9999
2 58410  42.9994 204.5643 0001320 273.7304  86.3397 15.27583811131027
STARLINK-30919          
1 58411U 23180K   26080.02250413 -.00005109  00000+0 -17625-3 0  9996
2 58411  43.0030 348.0888 0002069 273.3858  86.6757 15.27576969129269
STARLINK-30924          
1 58412U 23180L   26079.70063639 -.00000005  00000+0  85563-5 0  9999
2 58412  43.0015 201.9753 0001336 270.4481  89.6220 15.32100345131052
STARLINK-30931          
1 58413U 23180M   26079.97773878  .00001073  00000+0  48533-4 0  9992
2 58413  43.0039 337.5456 0001728 263.9865  96.0790 15.27581347129480
STARLINK-30922          
1 58414U 23180N   26080.00081682  .00000183  00000+0  16204-4 0  9995
2 58414  43.0034 348.8470 0002624 231.8978 128.1637 15.27589029129350
STARLINK-30949          
1 58415U 23180P   26079.92515756 -.00000058  00000+0  74245-5 0  9991
2 58415  43.0031 349.1283 0001029 273.8904  86.1830 15.27585678129340
STARLINK-30967          
1 58416U 23180Q   26079.79052844  .00002977  00000+0  11762-3 0  9995
2 58416  43.0042 349.8517 0001360 269.4845  90.5851 15.27593254129322
STARLINK-30955          
1 58417U 23180R   26080.01995599 -.00000115  00000+0  53638-5 0  9999
2 58417  43.0033 348.1334 0001453 269.3623  90.7062 15.27586356129363
STARLINK-30895          
1 58418U 23180S   26080.04564699  .00002415  00000+0  97225-4 0  9999
2 58418  43.0040 348.3324 0000856 289.4269  70.6490 15.27592094129254
STARLINK-30917          
1 58419U 23180T   26079.71957762  .00005995  00000+0  22731-3 0  9994
2 58419  42.9973 241.4611 0001450 246.8494 113.2205 15.27560526130589
STARLINK-30899          
1 58420U 23180U   26080.02766382  .00003464  00000+0  13534-3 0  9998
2 58420  43.0016 348.2016 0001896 270.5840  89.4794 15.27586636129247
STARLINK-30902          
1 58421U 23180V   26080.04822342  .00001390  00000+0  60026-4 0  9995
2 58421  43.0025 348.3506 0001320 276.8971  83.1730 15.27586915129251
STARLINK-30912          
1 58422U 23180W   26080.04019622  .00000163  00000+0  15467-4 0  9991
2 58422  43.0028 206.1936 0001415 270.4130  89.6560 15.27580664131031
