[{"OBJECT_NAME":"STARLINK-30954","OBJECT_ID":"2023-180F","EPOCH":"2026-03-20T10:54:38.290176","MEAN_MOTION":15.27581172,"ECCENTRICITY":0.00012909,"INCLINATION":42.9993,"RA_OF_ASC_NODE":351.6327,"ARG_OF_PERICENTER":282.3683,"MEAN_ANOMALY":77.7024,"EPHEMERIS_TYPE":0,"CLASSIFICATION_TYPE":"U","NORAD_CAT_ID":58407,"ELEMENT_SET_NO":999,"REV_AT_EPOCH":12927,"BSTAR":3.805831e-5,"MEAN_MOTION_DOT":7.85e-6,"MEAN_MOTION_DDOT":0},{"OBJECT_NAME":"STARLINK-30906","OBJECT_ID":"2023-180G","EPOCH":"2026-03-21T00:01:15.534336","MEAN_MOTION":15.26745181,"ECCENTRICITY":0.00014389,"INCLINATION":43.0023,"RA_OF_ASC_NODE":352.1014,"ARG_OF_PERICENTER":258.1292,"MEAN_ANOMALY":101.9398,"EPHEMERIS_TYPE":0,"CLASSIFICATION_TYPE":"U","NORAD_CAT_ID":58408,"ELEMENT_SET_NO":999,"REV_AT_EPOCH":12920,"BSTAR":2.7885538e-5,"MEAN_MOTION_DOT":4.88e-6,"MEAN_MOTION_DDOT":0},{"OBJECT_NAME":"STARLINK-30940","OBJECT_ID":"2023-180H","EPOCH":"2026-03-20T16:31:01.941024","MEAN_MOTION":15.27580341,"ECCENTRICITY":0.00012754,"INCLINATION":42.9995,"RA_OF_ASC_NODE":205.3481,"ARG_OF_PERICENTER":273.5489,"MEAN_ANOMALY":86.5216,"EPHEMERIS_TYPE":0,"CLASSIFICATION_TYPE":"U","NORAD_CAT_ID":58409,"ELEMENT_SET_NO":999,"REV_AT_EPOCH":13101,"BSTAR":-7.904793e-6,"MEAN_MOTION_DOT":-4.8e-6,"MEAN_MOTION_DDOT":0},{"OBJECT_NAME":"STARLINK-30933","OBJECT_ID":"2023-180J","EPOCH":"2026-03-20T16:47:28.034592","MEAN_MOTION":15.27583811,"ECCENTRICITY":0.00013209,"INCLINATION":42.9994,"RA_OF_ASC_NODE":204.5643,"ARG_OF_PERICENTER":273.7304,"MEAN_ANOMALY":86.3397,"EPHEMERIS_TYPE":0,"CLASSIFICATION_TYPE":"U","NORAD_CAT_ID":58410,"ELEMENT_SET_NO":999,"REV_AT_EPOCH":13102,"BSTAR":7.3600143e-5,"MEAN_MOTION_DOT":1.764e-5,"MEAN_MOTION_DDOT":0},{"OBJECT_NAME":"STARLINK-30919","OBJECT_ID":"2023-180K","EPOCH":"2026-03-21T00:32:24.356832","MEAN_MOTION":15.27576969,"ECCENTRICITY":0.00020695,"INCLINATION":43.003,"RA_OF_ASC_NODE":348.0888,"ARG_OF_PERICENTER":273.3858,"MEAN_ANOMALY":86.6757,"EPHEMERIS_TYPE":0,"CLASSIFICATION_TYPE":"U","NORAD_CAT_ID":58411,"ELEMENT_SET_NO":999,"REV_AT_EPOCH":12926,"BSTAR":-0.00017625466,"MEAN_MOTION_DOT":-5.109e-5,"MEAN_MOTION_DDOT":0},{"OBJECT_NAME":"STARLINK-30924","OBJECT_ID":"2023-180L","EPOCH":"2026-03-20T16:48:54.984096","MEAN_MOTION":15.32100345,"ECCENTRICITY":0.00013365,"INCLINATION":43.0015,"RA_OF_ASC_NODE":201.9753,"ARG_OF_PERICENTER":270.4481,"MEAN_ANOMALY":89.622,"EPHEMERIS_TYPE":0,"CLASSIFICATION_TYPE":"U","NORAD_CAT_ID":58412,"ELEMENT_SET_NO":999,"REV_AT_EPOCH":13105,"BSTAR":8.556326e-6,"MEAN_MOTION_DOT":-5.0e-8,"MEAN_MOTION_DDOT":0},{"OBJECT_NAME":"STARLINK-30931","OBJECT_ID":"2023-180M","EPOCH":"2026-03-20T23:27:56.630592","MEAN_MOTION":15.27581347,"ECCENTRICITY":0.00017281,"INCLINATION":43.0039,"RA_OF_ASC_NODE":337.5456,"ARG_OF_PERICENTER":263.9865,"MEAN_ANOMALY":96.079,"EPHEMERIS_TYPE":0,"CLASSIFICATION_TYPE":"U","NORAD_CAT_ID":58413,"ELEMENT_SET_NO":999,"REV_AT_EPOCH":12948,"BSTAR":4.8532986e-5,"MEAN_MOTION_DOT":1.073e-5,"MEAN_MOTION_DDOT":0},{"OBJECT_NAME":"STARLINK-30922","OBJECT_ID":"2023-180N","EPOCH":"2026-03-21T00:01:10.573248","MEAN_MOTION":15.27589029,"ECCENTRICITY":0.00026248,"INCLINATION":43.0034,"RA_OF_ASC_NODE":348.847,"ARG_OF_PERICENTER":231.8978,"MEAN_ANOMALY":128.1637,"EPHEMERIS_TYPE":0,"CLASSIFICATION_TYPE":"U","NORAD_CAT_ID":58414,"ELEMENT_SET_NO":999,"REV_AT_EPOCH":12935,"BSTAR":1.6204258e-5,"MEAN_MOTION_DOT":1.83e-6,"MEAN_MOTION_DDOT":0},{"OBJECT_NAME":"STARLINK-30949","OBJECT_ID":"2023-180P","EPOCH":"2026-03-20T22:12:13.613184","MEAN_MOTION":15.27585678,"ECCENTRICITY":0.00010294,"INCLINATION":43.0031,"RA_OF_ASC_NODE":349.1283,"ARG_OF_PERICENTER":273.8904,"MEAN_ANOMALY":86.183,"EPHEMERIS_TYPE":0,"CLASSIFICATION_TYPE":"U","NORAD_CAT_ID":58415,"ELEMENT_SET_NO":999,"REV_AT_EPOCH":12934,"BSTAR":7.424512e-6,"MEAN_MOTION_DOT":-5.8e-7,"MEAN_MOTION_DDOT":0},{"OBJECT_NAME":"STARLINK-30967","OBJECT_ID":"2023-180Q","EPOCH":"2026-03-20T18:58:21.657216","MEAN_MOTION":15.27593254,"ECCENTRICITY":0.00013606,"INCLINATION":43.0042,"RA_OF_ASC_NODE":349.8517,"ARG_OF_PERICENTER":269.4845,"MEAN_ANOMALY":90.5851,"EPHEMERIS_TYPE":0,"CLASSIFICATION_TYPE":"U","NORAD_CAT_ID":58416,"ELEMENT_SET_NO":999,"REV_AT_EPOCH":12932,"BSTAR":0.00011761841,"MEAN_MOTION_DOT":2.977e-5,"MEAN_MOTION_DDOT":0},{"OBJECT_NAME":"STARLINK-30955","OBJECT_ID":"2023-180R","EPOCH":"2026-03-21T00:28:44.197536","MEAN_MOTION":15.27586356,"ECCENTRICITY":0.0001453,"INCLINATION":43.0033,"RA_OF_ASC_NODE":348.1334,"ARG_OF_PERICENTER":269.3623,"MEAN_ANOMALY":90.7062,"EPHEMERIS_TYPE":0,"CLASSIFICATION_TYPE":"U","NORAD_CAT_ID":58417,"ELEMENT_SET_NO":999,"REV_AT_EPOCH":12936,"BSTAR":5.363777e-6,"MEAN_MOTION_DOT":-1.15e-6,"MEAN_MOTION_DDOT":0},{"OBJECT_NAME":"STARLINK-30895","OBJECT_ID":"2023-180S","EPOCH":"2026-03-21T01:05:43.899936","MEAN_MOTION":15.27592094,"ECCENTRICITY":8.566e-5,"INCLINATION":43.004,"RA_OF_ASC_NODE":348.3324,"ARG_OF_PERICENTER":289.4269,"MEAN_ANOMALY":70.649,"EPHEMERIS_TYPE":0,"CLASSIFICATION_TYPE":"U","NORAD_CAT_ID":58418,"ELEMENT_SET_NO":999,"REV_AT_EPOCH":12925,"BSTAR":9.7224723e-5,"MEAN_MOTION_DOT":2.415e-5,"MEAN_MOTION_DDOT":0},{"OBJECT_NAME":"STARLINK-30917","OBJECT_ID":"2023-180T","EPOCH":"2026-03-20T17:16:11.506368","MEAN_MOTION":15.27560526,"ECCENTRICITY":0.00014507,"INCLINATION":42.9973,"RA_OF_ASC_NODE":241.4611,"ARG_OF_PERICENTER":246.8494,"MEAN_ANOMALY":113.2205,"EPHEMERIS_TYPE":0,"CLASSIFICATION_TYPE":"U","NORAD_CAT_ID":58419,"ELEMENT_SET_NO":999,"REV_AT_EPOCH":13058,"BSTAR":0.0002273111,"MEAN_MOTION_DOT":5.995e-5,"MEAN_MOTION_DDOT":0},{"OBJECT_NAME":"STARLINK-30899","OBJECT_ID":"2023-180U","EPOCH":"2026-03-21T00:39:50.154048","MEAN_MOTION":15.27586636,"ECCENTRICITY":0.00018967,"INCLINATION":43.0016,"RA_OF_ASC_NODE":348.2016,"ARG_OF_PERICENTER":270.584,"MEAN_ANOMALY":89.4794,"EPHEMERIS_TYPE":0,"CLASSIFICATION_TYPE":"U","NORAD_CAT_ID":58420,"ELEMENT_SET_NO":999,"REV_AT_EPOCH":12924,"BSTAR":0.00013533921,"MEAN_MOTION_DOT":3.464e-5,"MEAN_MOTION_DDOT":0},{"OBJECT_NAME":"STARLINK-30902","OBJECT_ID":"2023-180V","EPOCH":"2026-03-21T01:09:26.503488","MEAN_MOTION":15.27586915,"ECCENTRICITY":0.00013203,"INCLINATION":43.0025,"RA_OF_ASC_NODE":348.3506,"ARG_OF_PERICENTER":276.8971,"MEAN_ANOMALY":83.173,"EPHEMERIS_TYPE":0,"CLASSIFICATION_TYPE":"U","NORAD_CAT_ID":58421,"ELEMENT_SET_NO":999,"REV_AT_EPOCH":12925,"BSTAR":6.0025542e-5,"MEAN_MOTION_DOT":1.39e-5,"MEAN_MOTION_DDOT":0},{"OBJECT_NAME":"STARLINK-30912","OBJECT_ID":"2023-180W","EPOCH":"2026-03-21T00:57:52.953408","MEAN_MOTION":15.27580664,"ECCENTRICITY":0.00014151,"INCLINATION":43.0028,"RA_OF_ASC_NODE":206.1936,"ARG_OF_PERICENTER":270.413,"MEAN_ANOMALY":89.656,"EPHEMERIS_TYPE":0,"CLASSIFICATION_TYPE":"U","NORAD_CAT_ID":58422,"ELEMENT_SET_NO":999,"REV_AT_EPOCH":13103,"BSTAR":1.5466941e-5,"MEAN_MOTION_DOT":1.63e-6,"MEAN_MOTION_DDOT":0}]
